[{"OBJECT_NAME":"STARLINK-32446","OBJECT_ID":"2024-175V","EPOCH":"2026-03-09T13:40:49.468800","MEAN_MOTION":15.3019881,"ECCENTRICITY":0.0001414,"INCLINATION":53.1611,"RA_OF_ASC_NODE":194.7125,"ARG_OF_PERICENTER":95.9075,"MEAN_ANOMALY":264.2087,"EPHEMERIS_TYPE":0,"CLASSIFICATION_TYPE":"U","NORAD_CAT_ID":61262,"ELEMENT_SET_NO":999,"REV_AT_EPOCH":8143,"BSTAR":-3.3267e-5,"MEAN_MOTION_DOT":-1.344e-5,"MEAN_MOTION_DDOT":0},{"OBJECT_NAME":"COSMOS 660","OBJECT_ID":"1974-044A","EPOCH":"2026-03-09T22:24:08.129952","MEAN_MOTION":14.66679771,"ECCENTRICITY":0.04337529,"INCLINATION":82.9408,"RA_OF_ASC_NODE":355.0742,"ARG_OF_PERICENTER":327.8768,"MEAN_ANOMALY":29.6656,"EPHEMERIS_TYPE":0,"CLASSIFICATION_TYPE":"U","NORAD_CAT_ID":7337,"ELEMENT_SET_NO":999,"REV_AT_EPOCH":62706,"BSTAR":0.0004937415,"MEAN_MOTION_DOT":0.0001202,"MEAN_MOTION_DDOT":0}]
